{
  "copyrights": "no info",
  "count": 84,
  "index": "http://www.wbc.poznan.pl/dlibra/publication?id=177804&tab=1",
  "issues": [
    {
      "djvu": "http://www.wbc.poznan.pl/Content/172528/index.djvu",
      "id": 172528,
      "name": "Warciarz: biuletyn Klubu Sportowego \"Warta\" Stow. Zap. w Poznaniu 1939 marzec R.11 Nr10 (87)",
      "year": "",
      "zip": "http://www.wbc.poznan.pl/Content/172528/zip/"
    },
    {
      "djvu": "http://www.wbc.poznan.pl/Content/172527/index.djvu",
      "id": 172527,
      "name": "Warciarz: organ Klubu Sportowego \"Warta\" T. z. w Poznaniu 1938 grudzie\u0144 R.10 Nr9 (86)",
      "year": "1938",
      "zip": "http://www.wbc.poznan.pl/Content/172527/zip/"
    },
    {
      "djvu": "http://www.wbc.poznan.pl/Content/172526/index.djvu",
      "id": 172526,
      "name": "Warciarz: organ Klubu Sportowego \"Warta\" T. z. w Poznaniu 1938 lipiec/sierpie\u0144 R.10 Nr7/8 (85)",
      "year": "1938",
      "zip": "http://www.wbc.poznan.pl/Content/172526/zip/"
    },
    {
      "djvu": "http://www.wbc.poznan.pl/Content/172525/index.djvu",
      "id": 172525,
      "name": "Warciarz: organ Klubu Sportowego \"Warta\" T. z. w Poznaniu 1938 luty/czerwiec R.10 Nr2/6 (84)",
      "year": "1938",
      "zip": "http://www.wbc.poznan.pl/Content/172525/zip/"
    },
    {
      "djvu": "http://www.wbc.poznan.pl/Content/172524/index.djvu",
      "id": 172524,
      "name": "Warciarz: organ Klubu Sportowego \"Warta\" T. z. w Poznaniu 1938 stycze\u0144 R.10 Nr1 (83)",
      "year": "1938",
      "zip": "http://www.wbc.poznan.pl/Content/172524/zip/"
    },
    {
      "djvu": "http://www.wbc.poznan.pl/Content/172523/index.djvu",
      "id": 172523,
      "name": "Warciarz: organ Klubu Sportowego \"Warta\" T. z. w Poznaniu 1937 grudzie\u0144 R.9 Nr12 (82)",
      "year": "1937",
      "zip": "http://www.wbc.poznan.pl/Content/172523/zip/"
    },
    {
      "djvu": "http://www.wbc.poznan.pl/Content/172522/index.djvu",
      "id": 172522,
      "name": "Warciarz: organ Klubu Sportowego \"Warta\" T. z. w Poznaniu 1937 listopad R.9 Nr11 (81)",
      "year": "1937",
      "zip": "http://www.wbc.poznan.pl/Content/172522/zip/"
    },
    {
      "djvu": "http://www.wbc.poznan.pl/Content/172521/index.djvu",
      "id": 172521,
      "name": "Warciarz: organ Klubu Sportowego \"Warta\" T. z. w Poznaniu 1937 pa\u017adziernik R.9 Nr10 (80)",
      "year": "1937",
      "zip": "http://www.wbc.poznan.pl/Content/172521/zip/"
    },
    {
      "djvu": "http://www.wbc.poznan.pl/Content/172520/index.djvu",
      "id": 172520,
      "name": "Warciarz: organ Klubu Sportowego \"Warta\" T. z. w Poznaniu 1937 wrzesie\u0144 R.9 Nr8/9 (78/79)",
      "year": "1937",
      "zip": "http://www.wbc.poznan.pl/Content/172520/zip/"
    },
    {
      "djvu": "http://www.wbc.poznan.pl/Content/172519/index.djvu",
      "id": 172519,
      "name": "Warciarz: organ Klubu Sportowego \"Warta\" T. z. w Poznaniu 1937 lipiec R.9 Nr7 (77)",
      "year": "1937",
      "zip": "http://www.wbc.poznan.pl/Content/172519/zip/"
    },
    {
      "djvu": "http://www.wbc.poznan.pl/Content/172518/index.djvu",
      "id": 172518,
      "name": "Warciarz: organ Klubu Sportowego \"Warta\" T. z. w Poznaniu 1937 czerwiec R.9 Nr6 (76)",
      "year": "1937",
      "zip": "http://www.wbc.poznan.pl/Content/172518/zip/"
    },
    {
      "djvu": "http://www.wbc.poznan.pl/Content/172517/index.djvu",
      "id": 172517,
      "name": "Warciarz: organ Klubu Sportowego \"Warta\" T. z. w Poznaniu 1937 maj R.9 Nr5 (75)",
      "year": "1937",
      "zip": "http://www.wbc.poznan.pl/Content/172517/zip/"
    },
    {
      "djvu": "http://www.wbc.poznan.pl/Content/172516/index.djvu",
      "id": 172516,
      "name": "Warciarz: organ Klubu Sportowego \"Warta\" T. z. w Poznaniu 1937 kwiecie\u0144 R.9 Nr4 (74)",
      "year": "1937",
      "zip": "http://www.wbc.poznan.pl/Content/172516/zip/"
    },
    {
      "djvu": "http://www.wbc.poznan.pl/Content/172515/index.djvu",
      "id": 172515,
      "name": "Warciarz: organ Klubu Sportowego \"Warta\" T. z. w Poznaniu 1937 marzec R.9 Nr3 (73)",
      "year": "1937",
      "zip": "http://www.wbc.poznan.pl/Content/172515/zip/"
    },
    {
      "djvu": "http://www.wbc.poznan.pl/Content/172514/index.djvu",
      "id": 172514,
      "name": "Warciarz: organ Klubu Sportowego \"Warta\" T. z. w Poznaniu 1937 stycze\u0144/luty R.9 Nr1/2 (71/72)",
      "year": "1937",
      "zip": "http://www.wbc.poznan.pl/Content/172514/zip/"
    },
    {
      "djvu": "http://www.wbc.poznan.pl/Content/172513/index.djvu",
      "id": 172513,
      "name": "Warciarz: organ Klubu Sportowego \"Warta\" T. z. w Poznaniu 1936 grudzie\u0144 R.8 Nr11",
      "year": "1936",
      "zip": "http://www.wbc.poznan.pl/Content/172513/zip/"
    },
    {
      "djvu": "http://www.wbc.poznan.pl/Content/172512/index.djvu",
      "id": 172512,
      "name": "Warciarz: organ Klubu Sportowego \"Warta\" T. z. w Poznaniu 1936 listopad R.8 Nr10",
      "year": "1936",
      "zip": "http://www.wbc.poznan.pl/Content/172512/zip/"
    },
    {
      "djvu": "http://www.wbc.poznan.pl/Content/172511/index.djvu",
      "id": 172511,
      "name": "Warciarz: organ Klubu Sportowego \"Warta\" T. z. w Poznaniu 1936 pa\u017adziernik R.8 Nr9",
      "year": "1936",
      "zip": "http://www.wbc.poznan.pl/Content/172511/zip/"
    },
    {
      "djvu": "http://www.wbc.poznan.pl/Content/172510/index.djvu",
      "id": 172510,
      "name": "Warciarz: organ Klubu Sportowego \"Warta\" T. z. w Poznaniu 1936 wrzesie\u0144 R.8 Nr8",
      "year": "1936",
      "zip": "http://www.wbc.poznan.pl/Content/172510/zip/"
    },
    {
      "djvu": "http://www.wbc.poznan.pl/Content/172509/index.djvu",
      "id": 172509,
      "name": "Warciarz: organ Klubu Sportowego \"Warta\" T. z. w Poznaniu 1936 sierpie\u0144 R.8 Nr7",
      "year": "1936",
      "zip": "http://www.wbc.poznan.pl/Content/172509/zip/"
    },
    {
      "djvu": "http://www.wbc.poznan.pl/Content/172508/index.djvu",
      "id": 172508,
      "name": "Warciarz: organ Klubu Sportowego \"Warta\" T. z. w Poznaniu 1936 czerwiec R.8 Nr5",
      "year": "1936",
      "zip": "http://www.wbc.poznan.pl/Content/172508/zip/"
    },
    {
      "djvu": "http://www.wbc.poznan.pl/Content/172507/index.djvu",
      "id": 172507,
      "name": "Warciarz: organ Klubu Sportowego \"Warta\" T. z. w Poznaniu 1936 maj R.8 Nr4",
      "year": "1936",
      "zip": "http://www.wbc.poznan.pl/Content/172507/zip/"
    },
    {
      "djvu": "http://www.wbc.poznan.pl/Content/172506/index.djvu",
      "id": 172506,
      "name": "Warciarz: organ Klubu Sportowego \"Warta\" T. z. w Poznaniu 1936 kwiecie\u0144 R.8 Nr3",
      "year": "1936",
      "zip": "http://www.wbc.poznan.pl/Content/172506/zip/"
    },
    {
      "djvu": "http://www.wbc.poznan.pl/Content/172505/index.djvu",
      "id": 172505,
      "name": "Warciarz: organ Klubu Sportowego \"Warta\" T. z. w Poznaniu 1936 marzec R.8 Nr2",
      "year": "1936",
      "zip": "http://www.wbc.poznan.pl/Content/172505/zip/"
    },
    {
      "djvu": "http://www.wbc.poznan.pl/Content/172504/index.djvu",
      "id": 172504,
      "name": "Warciarz: organ Klubu Sportowego \"Warta\" T. z. w Poznaniu 1936 luty R.8 Nr1",
      "year": "1936",
      "zip": "http://www.wbc.poznan.pl/Content/172504/zip/"
    },
    {
      "djvu": "http://www.wbc.poznan.pl/Content/172503/index.djvu",
      "id": 172503,
      "name": "Warciarz: organ Klubu Sportowego \"Warta\" T. z. w Poznaniu 1936 stycze\u0144 R.7 Nr12",
      "year": "1936",
      "zip": "http://www.wbc.poznan.pl/Content/172503/zip/"
    },
    {
      "djvu": "http://www.wbc.poznan.pl/Content/172427/index.djvu",
      "id": 172427,
      "name": "Warciarz: organ Klubu Sportowego \"Warta\" T. z. w Poznaniu 1935 grudzie\u0144 R.7 Nr11",
      "year": "1935",
      "zip": "http://www.wbc.poznan.pl/Content/172427/zip/"
    },
    {
      "djvu": "http://www.wbc.poznan.pl/Content/172426/index.djvu",
      "id": 172426,
      "name": "Warciarz: organ Klubu Sportowego \"Warta\" T. z. w Poznaniu 1935 listopad R.7 Nr10",
      "year": "1935",
      "zip": "http://www.wbc.poznan.pl/Content/172426/zip/"
    },
    {
      "djvu": "http://www.wbc.poznan.pl/Content/172425/index.djvu",
      "id": 172425,
      "name": "Warciarz: organ Klubu Sportowego \"Warta\" T. z. w Poznaniu 1935 pa\u017adziernik R.7 Nr9",
      "year": "1935",
      "zip": "http://www.wbc.poznan.pl/Content/172425/zip/"
    },
    {
      "djvu": "http://www.wbc.poznan.pl/Content/172424/index.djvu",
      "id": 172424,
      "name": "Warciarz: organ Klubu Sportowego \"Warta\" T. z. w Poznaniu 1935 wrzesie\u0144 R.7 Nr8",
      "year": "1935",
      "zip": "http://www.wbc.poznan.pl/Content/172424/zip/"
    },
    {
      "djvu": "http://www.wbc.poznan.pl/Content/172423/index.djvu",
      "id": 172423,
      "name": "Warciarz: organ Klubu Sportowego \"Warta\" T. z. w Poznaniu 1935 sierpie\u0144 R.7 Nr7",
      "year": "1935",
      "zip": "http://www.wbc.poznan.pl/Content/172423/zip/"
    },
    {
      "djvu": "http://www.wbc.poznan.pl/Content/172422/index.djvu",
      "id": 172422,
      "name": "Warciarz: organ Klubu Sportowego \"Warta\" T. z. w Poznaniu 1935 lipiec R.7 Nr6",
      "year": "1935",
      "zip": "http://www.wbc.poznan.pl/Content/172422/zip/"
    },
    {
      "djvu": "http://www.wbc.poznan.pl/Content/172421/index.djvu",
      "id": 172421,
      "name": "Warciarz: organ Klubu Sportowego \"Warta\" T. z. w Poznaniu 1935 czerwiec R.7 Nr5",
      "year": "1935",
      "zip": "http://www.wbc.poznan.pl/Content/172421/zip/"
    },
    {
      "djvu": "http://www.wbc.poznan.pl/Content/172420/index.djvu",
      "id": 172420,
      "name": "Warciarz: organ Klubu Sportowego \"Warta\" T. z. w Poznaniu 1935 Maj R.7 Nr4",
      "year": "1935",
      "zip": "http://www.wbc.poznan.pl/Content/172420/zip/"
    },
    {
      "djvu": "http://www.wbc.poznan.pl/Content/172419/index.djvu",
      "id": 172419,
      "name": "Warciarz: organ Klubu Sportowego \"Warta\" T. z. w Poznaniu 1935 kwiecie\u0144 R.7 Nr3",
      "year": "1935",
      "zip": "http://www.wbc.poznan.pl/Content/172419/zip/"
    },
    {
      "djvu": "http://www.wbc.poznan.pl/Content/172418/index.djvu",
      "id": 172418,
      "name": "Warciarz: organ Klubu Sportowego \"Warta\" T. z. w Poznaniu 1935 R.7 Nr2",
      "year": "1935",
      "zip": "http://www.wbc.poznan.pl/Content/172418/zip/"
    },
    {
      "djvu": "http://www.wbc.poznan.pl/Content/172417/index.djvu",
      "id": 172417,
      "name": "Warciarz: organ Klubu Sportowego \"Warta\" T. z. w Poznaniu 1935 luty R.7 Nr1",
      "year": "1935",
      "zip": "http://www.wbc.poznan.pl/Content/172417/zip/"
    },
    {
      "djvu": "http://www.wbc.poznan.pl/Content/172416/index.djvu",
      "id": 172416,
      "name": "Warciarz: organ Klubu Sportowego \"Warta\" T. z. w Poznaniu 1934 grudzie\u0144 R.6 Nr12",
      "year": "1934",
      "zip": "http://www.wbc.poznan.pl/Content/172416/zip/"
    },
    {
      "djvu": "http://www.wbc.poznan.pl/Content/172415/index.djvu",
      "id": 172415,
      "name": "Warciarz: organ Klubu Sportowego \"Warta\" T. z. w Poznaniu 1934 R.6 Nr11",
      "year": "1934",
      "zip": "http://www.wbc.poznan.pl/Content/172415/zip/"
    },
    {
      "djvu": "http://www.wbc.poznan.pl/Content/172414/index.djvu",
      "id": 172414,
      "name": "Warciarz: organ Klubu Sportowego \"Warta\" T. z. w Poznaniu 1934 R.6 Nr10",
      "year": "1934",
      "zip": "http://www.wbc.poznan.pl/Content/172414/zip/"
    },
    {
      "djvu": "http://www.wbc.poznan.pl/Content/172413/index.djvu",
      "id": 172413,
      "name": "Warciarz: organ Klubu Sportowego \"Warta\" T. z. w Poznaniu 1934 R.6 Nr9",
      "year": "1934",
      "zip": "http://www.wbc.poznan.pl/Content/172413/zip/"
    },
    {
      "djvu": "http://www.wbc.poznan.pl/Content/172412/index.djvu",
      "id": 172412,
      "name": "Warciarz: organ Klubu Sportowego \"Warta\" T. z. w Poznaniu 1934 wrzesie\u0144 R.6 Nr8",
      "year": "1934",
      "zip": "http://www.wbc.poznan.pl/Content/172412/zip/"
    },
    {
      "djvu": "http://www.wbc.poznan.pl/Content/172411/index.djvu",
      "id": 172411,
      "name": "Warciarz: organ Klubu Sportowego \"Warta\" T. z. w Poznaniu 1934 R.6 Nr7",
      "year": "1934",
      "zip": "http://www.wbc.poznan.pl/Content/172411/zip/"
    },
    {
      "djvu": "http://www.wbc.poznan.pl/Content/172410/index.djvu",
      "id": 172410,
      "name": "Warciarz: organ Klubu Sportowego \"Warta\" T. z. w Poznaniu 1934 czerwiec R.6 Nr6",
      "year": "1934",
      "zip": "http://www.wbc.poznan.pl/Content/172410/zip/"
    },
    {
      "djvu": "http://www.wbc.poznan.pl/Content/172409/index.djvu",
      "id": 172409,
      "name": "Warciarz: organ Klubu Sportowego \"Warta\" T. z. w Poznaniu 1934 czerwiec R.6 Nr5",
      "year": "1934",
      "zip": "http://www.wbc.poznan.pl/Content/172409/zip/"
    },
    {
      "djvu": "http://www.wbc.poznan.pl/Content/172408/index.djvu",
      "id": 172408,
      "name": "Warciarz: organ Klubu Sportowego \"Warta\" T. z. w Poznaniu 1934 maj R.6 Nr4",
      "year": "1934",
      "zip": "http://www.wbc.poznan.pl/Content/172408/zip/"
    },
    {
      "djvu": "http://www.wbc.poznan.pl/Content/172407/index.djvu",
      "id": 172407,
      "name": "Warciarz: organ Klubu Sportowego \"Warta\" T. z. w Poznaniu 1934 kwiecie\u0144 R.6 Nr3",
      "year": "1934",
      "zip": "http://www.wbc.poznan.pl/Content/172407/zip/"
    },
    {
      "djvu": "http://www.wbc.poznan.pl/Content/172406/index.djvu",
      "id": 172406,
      "name": "Warciarz: organ Klubu Sportowego \"Warta\" T. z. w Poznaniu 1934 luty R.6 Nr2",
      "year": "1934",
      "zip": "http://www.wbc.poznan.pl/Content/172406/zip/"
    },
    {
      "djvu": "http://www.wbc.poznan.pl/Content/172405/index.djvu",
      "id": 172405,
      "name": "Warciarz: organ Klubu Sportowego \"Warta\" T. z. w Poznaniu 1934 luty R.6 Nr1",
      "year": "1934",
      "zip": "http://www.wbc.poznan.pl/Content/172405/zip/"
    },
    {
      "djvu": "http://www.wbc.poznan.pl/Content/172404/index.djvu",
      "id": 172404,
      "name": "Warciarz: organ Klubu Sportowego \"Warta\" T. z. w Poznaniu 1933 grudzie\u0144 R.5 Nr11",
      "year": "1933",
      "zip": "http://www.wbc.poznan.pl/Content/172404/zip/"
    },
    {
      "djvu": "http://www.wbc.poznan.pl/Content/172403/index.djvu",
      "id": 172403,
      "name": "Warciarz: organ Klubu Sportowego \"Warta\" T. z. w Poznaniu 1933 R.5 Nr10",
      "year": "1933",
      "zip": "http://www.wbc.poznan.pl/Content/172403/zip/"
    },
    {
      "djvu": "http://www.wbc.poznan.pl/Content/172402/index.djvu",
      "id": 172402,
      "name": "Warciarz: organ Klubu Sportowego \"Warta\" T. z. w Poznaniu 1933 R.5 Nr9",
      "year": "1933",
      "zip": "http://www.wbc.poznan.pl/Content/172402/zip/"
    },
    {
      "djvu": "http://www.wbc.poznan.pl/Content/172401/index.djvu",
      "id": 172401,
      "name": "Warciarz: organ Klubu Sportowego \"Warta\" T. z. w Poznaniu 1933 R.5 Nr8",
      "year": "1933",
      "zip": "http://www.wbc.poznan.pl/Content/172401/zip/"
    },
    {
      "djvu": "http://www.wbc.poznan.pl/Content/172400/index.djvu",
      "id": 172400,
      "name": "Warciarz: organ Klubu Sportowego \"Warta\" T. z. w Poznaniu 1933 R.5 Nr7",
      "year": "1933",
      "zip": "http://www.wbc.poznan.pl/Content/172400/zip/"
    },
    {
      "djvu": "http://www.wbc.poznan.pl/Content/172399/index.djvu",
      "id": 172399,
      "name": "Warciarz: organ Klubu Sportowego \"Warta\" T. z. w Poznaniu 1933 R.5 Nr6",
      "year": "1933",
      "zip": "http://www.wbc.poznan.pl/Content/172399/zip/"
    },
    {
      "djvu": "http://www.wbc.poznan.pl/Content/172398/index.djvu",
      "id": 172398,
      "name": "Warciarz: organ Klubu Sportowego \"Warta\" T. z. w Poznaniu 1933 R.5 Nr5",
      "year": "1933",
      "zip": "http://www.wbc.poznan.pl/Content/172398/zip/"
    },
    {
      "djvu": "http://www.wbc.poznan.pl/Content/172397/index.djvu",
      "id": 172397,
      "name": "Warciarz: organ Klubu Sportowego \"Warta\" T. z. w Poznaniu 1933 maj R.5 Nr4",
      "year": "1933",
      "zip": "http://www.wbc.poznan.pl/Content/172397/zip/"
    },
    {
      "djvu": "http://www.wbc.poznan.pl/Content/172396/index.djvu",
      "id": 172396,
      "name": "Warciarz: organ Klubu Sportowego \"Warta\" T. z. w Poznaniu 1933 maj R.5 Nr3",
      "year": "1933",
      "zip": "http://www.wbc.poznan.pl/Content/172396/zip/"
    },
    {
      "djvu": "http://www.wbc.poznan.pl/Content/172395/index.djvu",
      "id": 172395,
      "name": "Warciarz: organ Klubu Sportowego \"Warta\" T. z. w Poznaniu 1933 kwiecie\u0144 R.5 Nr2",
      "year": "1933",
      "zip": "http://www.wbc.poznan.pl/Content/172395/zip/"
    },
    {
      "djvu": "http://www.wbc.poznan.pl/Content/172394/index.djvu",
      "id": 172394,
      "name": "Warciarz: organ Klubu Sportowego \"Warta\" T. z. w Poznaniu 1933 stycze\u0144 R.5 Nr1",
      "year": "1933",
      "zip": "http://www.wbc.poznan.pl/Content/172394/zip/"
    },
    {
      "djvu": "http://www.wbc.poznan.pl/Content/172393/index.djvu",
      "id": 172393,
      "name": "Warciarz: organ Klubu Sportowego \"Warta\" T. z. w Poznaniu 1932 R.4 Nr6",
      "year": "1932",
      "zip": "http://www.wbc.poznan.pl/Content/172393/zip/"
    },
    {
      "djvu": "http://www.wbc.poznan.pl/Content/172392/index.djvu",
      "id": 172392,
      "name": "Warciarz: organ Klubu Sportowego \"Warta\" T. z. w Poznaniu 1932 wrzesie\u0144 R.4 Nr5",
      "year": "1932",
      "zip": "http://www.wbc.poznan.pl/Content/172392/zip/"
    },
    {
      "djvu": "http://www.wbc.poznan.pl/Content/172391/index.djvu",
      "id": 172391,
      "name": "Warciarz: organ Klubu Sportowego \"Warta\" T. z. w Poznaniu 1932 lipiec R.4 Nr4",
      "year": "1932",
      "zip": "http://www.wbc.poznan.pl/Content/172391/zip/"
    },
    {
      "djvu": "http://www.wbc.poznan.pl/Content/172390/index.djvu",
      "id": 172390,
      "name": "Warciarz: organ Klubu Sportowego \"Warta\" T. z. w Poznaniu 1932 maj R.4 Nr3",
      "year": "1932",
      "zip": "http://www.wbc.poznan.pl/Content/172390/zip/"
    },
    {
      "djvu": "http://www.wbc.poznan.pl/Content/172389/index.djvu",
      "id": 172389,
      "name": "Warciarz: organ Klubu Sportowego \"Warta\" T. z. w Poznaniu 1932 marzec R.4 Nr2",
      "year": "1932",
      "zip": "http://www.wbc.poznan.pl/Content/172389/zip/"
    },
    {
      "djvu": "http://www.wbc.poznan.pl/Content/172388/index.djvu",
      "id": 172388,
      "name": "Warciarz: organ Klubu Sportowego \"Warta\" T. z. w Poznaniu 1932 stycze\u0144 R.4 Nr1",
      "year": "1932",
      "zip": "http://www.wbc.poznan.pl/Content/172388/zip/"
    },
    {
      "djvu": "http://www.wbc.poznan.pl/Content/172387/index.djvu",
      "id": 172387,
      "name": "Warciarz: organ Klubu Sportowego \"Warta\" T. z. w Poznaniu 1931 pa\u017adziernik R.3 Nr5",
      "year": "1931",
      "zip": "http://www.wbc.poznan.pl/Content/172387/zip/"
    },
    {
      "djvu": "http://www.wbc.poznan.pl/Content/172386/index.djvu",
      "id": 172386,
      "name": "Warciarz: organ Klubu Sportowego \"Warta\" T. z. w Poznaniu 1931 lipiec R.3 Nr4",
      "year": "1931",
      "zip": "http://www.wbc.poznan.pl/Content/172386/zip/"
    },
    {
      "djvu": "http://www.wbc.poznan.pl/Content/172385/index.djvu",
      "id": 172385,
      "name": "Warciarz: organ Klubu Sportowego \"Warta\" T. z. w Poznaniu 1931 maj R.3 Nr3",
      "year": "1931",
      "zip": "http://www.wbc.poznan.pl/Content/172385/zip/"
    },
    {
      "djvu": "http://www.wbc.poznan.pl/Content/172384/index.djvu",
      "id": 172384,
      "name": "Warciarz: organ Klubu Sportowego \"Warta\" T. z. w Poznaniu 1931 marzec R.3 Nr2",
      "year": "1931",
      "zip": "http://www.wbc.poznan.pl/Content/172384/zip/"
    },
    {
      "djvu": "http://www.wbc.poznan.pl/Content/172383/index.djvu",
      "id": 172383,
      "name": "Warciarz: organ Klubu Sportowego \"Warta\" T. z. w Poznaniu 1931 luty R.3 Nr1",
      "year": "1931",
      "zip": "http://www.wbc.poznan.pl/Content/172383/zip/"
    },
    {
      "djvu": "http://www.wbc.poznan.pl/Content/172195/index.djvu",
      "id": 172195,
      "name": "Warciarz: organ Klubu Sportowego \"Warta\" T. z. w Poznaniu 1930.09.27 R.2 Nr2",
      "year": "1930",
      "zip": "http://www.wbc.poznan.pl/Content/172195/zip/"
    },
    {
      "djvu": "http://www.wbc.poznan.pl/Content/172194/index.djvu",
      "id": 172194,
      "name": "Warciarz: organ Klubu Sportowego \"Warta\" T. z. w Poznaniu 1930 stycze\u0144 R.2 Nr1",
      "year": "1930",
      "zip": "http://www.wbc.poznan.pl/Content/172194/zip/"
    },
    {
      "djvu": "http://www.wbc.poznan.pl/Content/172193/index.djvu",
      "id": 172193,
      "name": "Warciarz: organ Klubu Sportowego \"Warta\" T. z. w Poznaniu 1929 listopad R.1 Nr11",
      "year": "1929",
      "zip": "http://www.wbc.poznan.pl/Content/172193/zip/"
    },
    {
      "djvu": "http://www.wbc.poznan.pl/Content/172192/index.djvu",
      "id": 172192,
      "name": "Warciarz: organ Klubu Sportowego \"Warta\" T. z. w Poznaniu 1929 pa\u017adziernik R.1 Nr10",
      "year": "1929",
      "zip": "http://www.wbc.poznan.pl/Content/172192/zip/"
    },
    {
      "djvu": "http://www.wbc.poznan.pl/Content/172191/index.djvu",
      "id": 172191,
      "name": "Warciarz: organ Klubu Sportowego \"Warta\" T. z. w Poznaniu 1929 pa\u017adziernik R.1 Nr9",
      "year": "1929",
      "zip": "http://www.wbc.poznan.pl/Content/172191/zip/"
    },
    {
      "djvu": "http://www.wbc.poznan.pl/Content/172190/index.djvu",
      "id": 172190,
      "name": "Warciarz: organ Klubu Sportowego \"Warta\" T. z. w Poznaniu 1929 wrzesie\u0144 R.1 Nr8",
      "year": "1929",
      "zip": "http://www.wbc.poznan.pl/Content/172190/zip/"
    },
    {
      "djvu": "http://www.wbc.poznan.pl/Content/172189/index.djvu",
      "id": 172189,
      "name": "Warciarz: organ Klubu Sportowego \"Warta\" T. z. w Poznaniu 1929 sierpie\u0144 R.1 Nr7",
      "year": "1929",
      "zip": "http://www.wbc.poznan.pl/Content/172189/zip/"
    },
    {
      "djvu": "http://www.wbc.poznan.pl/Content/172188/index.djvu",
      "id": 172188,
      "name": "Warciarz: organ Klubu Sportowego \"Warta\" T. z. w Poznaniu 1929 lipiec R.1 Nr6",
      "year": "1929",
      "zip": "http://www.wbc.poznan.pl/Content/172188/zip/"
    },
    {
      "djvu": "http://www.wbc.poznan.pl/Content/172187/index.djvu",
      "id": 172187,
      "name": "Warciarz: organ Klubu Sportowego \"Warta\" T. z. w Poznaniu 1929 maj R.1 Nr5",
      "year": "1929",
      "zip": "http://www.wbc.poznan.pl/Content/172187/zip/"
    },
    {
      "djvu": "http://www.wbc.poznan.pl/Content/172186/index.djvu",
      "id": 172186,
      "name": "Warciarz: organ Klubu Sportowego \"Warta\" T. z. w Poznaniu 1929 maj R.1 Nr4",
      "year": "1929",
      "zip": "http://www.wbc.poznan.pl/Content/172186/zip/"
    },
    {
      "djvu": "http://www.wbc.poznan.pl/Content/172185/index.djvu",
      "id": 172185,
      "name": "Warciarz: organ Klubu Sportowego \"Warta\" T. z. w Poznaniu 1929 kwiecie\u0144 R.1 Nr3",
      "year": "1929",
      "zip": "http://www.wbc.poznan.pl/Content/172185/zip/"
    },
    {
      "djvu": "http://www.wbc.poznan.pl/Content/172184/index.djvu",
      "id": 172184,
      "name": "Warciarz: organ Klubu Sportowego \"Warta\" T. z. w Poznaniu 1929 marzec R.1 Nr2",
      "year": "1929",
      "zip": "http://www.wbc.poznan.pl/Content/172184/zip/"
    },
    {
      "djvu": "http://www.wbc.poznan.pl/Content/172183/index.djvu",
      "id": 172183,
      "name": "Warciarz: organ Klubu Sportowego \"Warta\" T. z. w Poznaniu 1929 luty R.1 Nr1",
      "year": "1929",
      "zip": "http://www.wbc.poznan.pl/Content/172183/zip/"
    }
  ],
  "name": "Warciarz: organ Klubu Sportowego \"Warta\" T. z. w Poznaniu",
  "years": [
    {
      "index": "http://www.wbc.poznan.pl/dlibra/publication?id=177804&tab=3",
      "year": ""
    },
    {
      "index": "http://www.wbc.poznan.pl/dlibra/publication?id=177799&tab=3",
      "year": "1938"
    },
    {
      "index": "http://www.wbc.poznan.pl/dlibra/publication?id=177788&tab=3",
      "year": "1937"
    },
    {
      "index": "http://www.wbc.poznan.pl/dlibra/publication?id=177776&tab=3",
      "year": "1936"
    },
    {
      "index": "http://www.wbc.poznan.pl/dlibra/publication?id=177741&tab=3",
      "year": "1935"
    },
    {
      "index": "http://www.wbc.poznan.pl/dlibra/publication?id=177027&tab=3",
      "year": "1934"
    },
    {
      "index": "http://www.wbc.poznan.pl/dlibra/publication?id=177007&tab=3",
      "year": "1933"
    },
    {
      "index": "http://www.wbc.poznan.pl/dlibra/publication?id=176994&tab=3",
      "year": "1932"
    },
    {
      "index": "http://www.wbc.poznan.pl/dlibra/publication?id=176983&tab=3",
      "year": "1931"
    },
    {
      "index": "http://www.wbc.poznan.pl/dlibra/publication?id=176976&tab=3",
      "year": "1930"
    },
    {
      "index": "http://www.wbc.poznan.pl/dlibra/publication?id=176957&tab=3",
      "year": "1929"
    }
  ]
}